[{"OBJECT_NAME":"RESOURCESAT-2A","OBJECT_ID":"2016-074A","EPOCH":"2026-03-09T23:20:04.284384","MEAN_MOTION":14.21600566,"ECCENTRICITY":0.00024894,"INCLINATION":98.7596,"RA_OF_ASC_NODE":143.2604,"ARG_OF_PERICENTER":35.4222,"MEAN_ANOMALY":324.712,"EPHEMERIS_TYPE":0,"CLASSIFICATION_TYPE":"U","NORAD_CAT_ID":41877,"ELEMENT_SET_NO":999,"REV_AT_EPOCH":48020,"BSTAR":7.9593145e-5,"MEAN_MOTION_DOT":1.3e-6,"MEAN_MOTION_DDOT":0},{"OBJECT_NAME":"P\/L 153 DEB","OBJECT_ID":"1967-053K","EPOCH":"2026-03-09T18:54:04.718304","MEAN_MOTION":14.22857519,"ECCENTRICITY":0.00071494,"INCLINATION":69.957,"RA_OF_ASC_NODE":200.5294,"ARG_OF_PERICENTER":262.0673,"MEAN_ANOMALY":217.8622,"EPHEMERIS_TYPE":0,"CLASSIFICATION_TYPE":"U","NORAD_CAT_ID":19245,"ELEMENT_SET_NO":999,"REV_AT_EPOCH":1617,"BSTAR":0.00049424668,"MEAN_MOTION_DOT":1.054e-5,"MEAN_MOTION_DDOT":0}]
